ONEWEB-0275             
1 48993U 21060AC  25347.03687552 -.00000050  00000+0 -16504-3 0  9994
2 48993  87.9045 265.8420 0001795  73.3329 286.7999 13.16595295215064
ONEWEB-0276             
1 48994U 21060AD  25346.76613306  .00000135  00000+0  32022-3 0  9995
2 48994  87.9047 265.8949 0001644  68.2734 291.8571 13.16595490215047
ONEWEB-0277             
1 48995U 21060AE  25346.77878152 -.00000681  00000+0 -18153-2 0  9995
2 48995  87.9035 265.9173 0001881  74.9552 285.1787 13.16585725215034
ONEWEB-0278             
1 48996U 21060AF  25346.84528523  .00000095  00000+0  21406-3 0  9991
2 48996  87.9048 265.8760 0001503  71.9102 288.2193 13.16595005215171
ONEWEB-0279             
1 48997U 21060AG  25346.77723083  .00000098  00000+0  22386-3 0  9993
2 48997  87.9048 265.8876 0002032  72.6783 287.4571 13.16595735215093
ONEWEB-0280             
1 48998U 21060AH  25347.02024768  .00000062  00000+0  12806-3 0  9994
2 48998  87.9047 265.8449 0001646  60.6649 299.4647 13.16594569215065
ONEWEB-0281             
1 48999U 21060AJ  25347.02577935 -.00000049  00000+0 -16105-3 0  9997
2 48999  87.9046 265.8393 0001748  77.3965 282.7362 13.16596936215139
ONEWEB-0282             
1 49000U 21060AK  25346.75188412  .00000002  00000+0 -28225-4 0  9993
2 49000  87.9043 265.9046 0001797  68.7633 291.3690 13.16595376215076
